*******************************************************************************
Ephemeris / PORT_LOGIN Sun Nov 27 10:15:03 2011 Pasadena, USA    / Horizons    
*******************************************************************************
Target body name: Sycorax (717)                   {source: URA095}
Center body name: Solar System Barycenter (0)     {source: DE405}
Center-site name: BODY CENTER
*******************************************************************************
Start time      : A.D. 2001-Jan-01 10:00:00.0000 CT 
Stop  time      : A.D. 2001-Jan-02 00:00:00.0000 CT 
Step-size       : 60 minutes
*******************************************************************************
Center geodetic : 0.00000000,0.00000000,0.0000000 {E-lon(deg),Lat(deg),Alt(km)}
Center cylindric: 0.00000000,0.00000000,0.0000000 {E-lon(deg),Dxy(km),Dz(km)}
Center radii    : (undefined)                                                  
Output units    : AU-D                                                         
Output format   : 03
Reference frame : ICRF/J2000.0                                                 
Output type     : GEOMETRIC cartesian states
Coordinate systm: Earth Mean Equator and Equinox of Reference Epoch            
*******************************************************************************
JDCT 
   X     Y     Z
   VX    VY    VZ
   LT    RG    RR
*******************************************************************************
$$SOE
2451910.916666667 = A.D. 2001-Jan-01 10:00:00.0000 (CT)
   1.534305008067071E+01 -1.161005596161219E+01 -5.291530198191272E+00
   2.022938171641490E-03  2.909273705565914E-03  1.548461417186934E-03
   1.152505915997437E-01  1.995502134922702E+01 -5.478580558809324E-04
2451910.958333333 = A.D. 2001-Jan-01 11:00:00.0000 (CT)
   1.534313437383586E+01 -1.160993473634391E+01 -5.291465678381183E+00
   2.023133774968416E-03  2.909539147743656E-03  1.548489441595157E-03
   1.152504597618640E-01  1.995499852220577E+01 -5.478389273708309E-04
2451911.000000000 = A.D. 2001-Jan-01 12:00:00.0000 (CT)
   1.534321867515355E+01 -1.160981350001857E+01 -5.291401157406598E+00
   2.023329493248564E-03  2.909804444336796E-03  1.548517312967146E-03
   1.152503279286141E-01  1.995497569598615E+01 -5.478195775388693E-04
2451911.041666667 = A.D. 2001-Jan-01 13:00:00.0000 (CT)
   1.534330298462856E+01 -1.160969225264224E+01 -5.291336635273893E+00
   2.023525326249904E-03  2.910069595184858E-03  1.548545031341981E-03
   1.152501961000474E-01  1.995495287057739E+01 -5.478000064823317E-04
2451911.083333333 = A.D. 2001-Jan-01 14:00:00.0000 (CT)
   1.534338730226567E+01 -1.160957099422100E+01 -5.291272111989444E+00
   2.023721273740336E-03  2.910334600127735E-03  1.548572596758994E-03
   1.152500642762170E-01  1.995493004598869E+01 -5.477802142988522E-04
2451911.125000000 = A.D. 2001-Jan-01 15:00:00.0000 (CT)
   1.534347162806963E+01 -1.160944972476092E+01 -5.291207587559621E+00
   2.023917335487694E-03  2.910599459005689E-03  1.548600009257777E-03
   1.152499324571760E-01  1.995490722222926E+01 -5.477602010864035E-04
2451911.166666667 = A.D. 2001-Jan-01 16:00:00.0000 (CT)
   1.534355596204521E+01 -1.160932844426811E+01 -5.291143061990796E+00
   2.024113511259744E-03  2.910864171659346E-03  1.548627268878179E-03
   1.152498006429778E-01  1.995488439930833E+01 -5.477399669433041E-04
2451911.208333333 = A.D. 2001-Jan-01 17:00:00.0000 (CT)
   1.534364030419715E+01 -1.160920715274865E+01 -5.291078535289337E+00
   2.024309800824184E-03  2.911128737929698E-03  1.548654375660304E-03
   1.152496688336754E-01  1.995486157723509E+01 -5.477195119682159E-04
2451911.250000000 = A.D. 2001-Jan-01 18:00:00.0000 (CT)
   1.534372465453018E+01 -1.160908585020865E+01 -5.291014007461613E+00
   2.024506203948645E-03  2.911393157658109E-03  1.548681329644515E-03
   1.152495370293221E-01  1.995483875601873E+01 -5.476988362601451E-04
2451911.291666667 = A.D. 2001-Jan-01 19:00:00.0000 (CT)
   1.534380901304905E+01 -1.160896453665422E+01 -5.290949478513988E+00
   2.024702720400692E-03  2.911657430686306E-03  1.548708130871430E-03
   1.152494052299707E-01  1.995481593566846E+01 -5.476779399184402E-04
2451911.333333333 = A.D. 2001-Jan-01 20:00:00.0000 (CT)
   1.534389337975846E+01 -1.160884321209147E+01 -5.290884948452828E+00
   2.024899349947817E-03  2.911921556856383E-03  1.548734779381925E-03
   1.152492734356746E-01  1.995479311619347E+01 -5.476568230427957E-04
2451911.375000000 = A.D. 2001-Jan-01 21:00:00.0000 (CT)
   1.534397775466311E+01 -1.160872187652652E+01 -5.290820417284494E+00
   2.025096092357450E-03  2.912185536010803E-03  1.548761275217134E-03
   1.152491416464867E-01  1.995477029760293E+01 -5.476354857332490E-04
2451911.416666667 = A.D. 2001-Jan-01 22:00:00.0000 (CT)
   1.534406213776772E+01 -1.160860052996551E+01 -5.290755885015346E+00
   2.025292947396952E-03  2.912449367992394E-03  1.548787618418444E-03
   1.152490098624600E-01  1.995474747990605E+01 -5.476139280901788E-04
2451911.458333333 = A.D. 2001-Jan-01 23:00:00.0000 (CT)
   1.534414652907696E+01 -1.160847917241457E+01 -5.290691351651745E+00
   2.025489914833615E-03  2.912713052644355E-03  1.548813809027502E-03
   1.152488780836477E-01  1.995472466311199E+01 -5.475921502143114E-04
2451911.500000000 = A.D. 2001-Jan-02 00:00:00.0000 (CT)
   1.534423092859551E+01 -1.160835780387984E+01 -5.290626817200047E+00
   2.025686994434664E-03  2.912976589810245E-03  1.548839847086213E-03
   1.152487463101026E-01  1.995470184722992E+01 -5.475701522067154E-04
$$EOE
*******************************************************************************
Coordinate system description:

  Earth Mean Equator and Equinox of Reference Epoch

    Reference epoch: J2000.0
    xy-plane: plane of the Earth's mean equator at the reference epoch
    x-axis  : out along ascending node of instantaneous plane of the Earth's
              orbit and the Earth's mean equator at the reference epoch
    z-axis  : along the Earth mean north pole at the reference epoch

Symbol meaning [1 AU=149597870.691 km, 1 day=86400.0 s]:

    JDCT     Epoch Julian Date, Coordinate Time
      X      x-component of position vector (AU)                               
      Y      y-component of position vector (AU)                               
      Z      z-component of position vector (AU)                               
      VX     x-component of velocity vector (AU/day)                           
      VY     y-component of velocity vector (AU/day)                           
      VZ     z-component of velocity vector (AU/day)                           
      LT     One-way down-leg Newtonian light-time (day)                       
      RG     Range; distance from coordinate center (AU)                       
      RR     Range-rate; radial velocity wrt coord. center (AU/day)            

Geometric states/elements have no aberration corrections applied.

 Computations by ...
     Solar System Dynamics Group, Horizons On-Line Ephemeris System
     4800 Oak Grove Drive, Jet Propulsion Laboratory
     Pasadena, CA  91109   USA
     Information: http://ssd.jpl.nasa.gov/
     Connect    : telnet://ssd.jpl.nasa.gov:6775  (via browser)
                  telnet ssd.jpl.nasa.gov 6775    (via command-line)
     Author     : Jon.Giorgini@jpl.nasa.gov
*******************************************************************************
